IRIDIUM 116             
1 43072U 17083C   25363.18911176  .00000020  00000+0  10881-6 0  9993
2 43072  86.3952  33.0532 0002465  88.3773 271.7705 14.34217628419809
IRIDIUM 151             
1 43074U 17083E   25363.48087013  .00000052  00000+0  11515-4 0  9990
2 43074  86.3955  32.9852 0002177  90.5182 269.6264 14.34217831419819
IRIDIUM 134             
1 43075U 17083F   25363.17008348  .00000242  00000+0  79171-4 0  9994
2 43075  86.3957  33.1210 0002414  95.1982 264.9489 14.34220655419732
IRIDIUM 153             
1 43078U 17083J   25363.47744191  .00000448  00000+0  15306-3 0  9990
2 43078  86.3968   1.4131 0002062  98.4635 261.6795 14.34216905420950
IRIDIUM 131             
1 43079U 17083K   25363.51258332 -.00000023  00000+0 -15400-4 0  9990
2 43079  86.3953  33.0815 0001979  93.7461 266.3961 14.34217172419789
